IRIDIUM 159             
1 43578U 18061K   25200.48016784  .00000000  00000+0 -72345-5 0  9996
2 43578  86.3989 195.7140 0002373  91.2708 268.8760 14.34217422365697
IRIDIUM 180             
1 43922U 19002A   25200.20058915 -.00000003  00000+0 -82825-5 0  9995
2 43922  86.4003 132.8143 0002203  80.8687 279.2757 14.34218062341300
IRIDIUM 176             
1 43923U 19002B   25200.32113707  .00000712  00000+0  10902-3 0  9990
2 43923  86.6125 132.7542 0002411  70.5595 289.5883 14.72258628350279
IRIDIUM 168             
1 43924U 19002C   25200.33378418  .00000018  00000+0 -70358-6 0  9998
2 43924  86.4003 132.8267 0002251  83.7682 276.3770 14.34217708341263
IRIDIUM 173             
1 43925U 19002D   25200.32110746  .00000214  00000+0  69374-4 0  9997
2 43925  86.3999 132.7345 0002280  79.9074 280.2379 14.34218007341258
IRIDIUM 169             
1 43926U 19002E   25199.66275596  .00000265  00000+0  80207-4 0  9991
2 43926  86.4269 164.5947 0002142  49.0285 311.1098 14.38606455342277
IRIDIUM 172             
1 43927U 19002F   25200.31475686  .00000008  00000+0 -40370-5 0  9993
2 43927  86.4000 132.7439 0002419  83.1632 276.9839 14.34217652341257
IRIDIUM 175             
1 43928U 19002G   25200.18020860  .00000605  00000+0  91951-4 0  9991
2 43928  86.1481  83.5035 0001401  92.3784 267.7593 14.72246292350241
